OBJECT_NAME,OBJECT_ID,EPOCH,MEAN_MOTION,ECCENTRICITY,INCLINATION,RA_OF_ASC_NODE,ARG_OF_PERICENTER,MEAN_ANOMALY,EPHEMERIS_TYPE,CLASSIFICATION_TYPE,NORAD_CAT_ID,ELEMENT_SET_NO,REV_AT_EPOCH,BSTAR,MEAN_MOTION_DOT,MEAN_MOTION_DDOT
KUIPER-00522,2026-140L,2026-07-16T13:06:00.641664,15.38614832,.0013125,51.8765,256.4972,273.5705,86.3781,0,U,69602,999,575,.37748E-3,.14289E-3,0
KUIPER-00528,2026-140M,2026-07-16T13:50:59.851968,15.37521210,.0005937,51.8776,256.6977,4.3015,355.8022,0,U,69603,999,575,.41531E-3,.15171E-3,0
KUIPER-00532,2026-140N,2026-07-17T04:11:21.406848,15.36595235,.0005661,51.8771,253.9479,45.9392,314.2060,0,U,69604,999,584,.4041E-3,.14306E-3,0
KUIPER-00533,2026-140P,2026-07-17T03:29:09.561984,15.38315842,.0008314,51.8757,253.7606,339.0364,21.0281,0,U,69605,999,584,.63115E-3,.23917E-3,0
KUIPER-00534,2026-140Q,2026-07-17T03:00:09.359712,15.38762120,.0013256,51.8813,253.6415,277.6915,82.2567,0,U,69606,999,584,.38079E-3,.1449E-3,0
KUIPER-00537,2026-140R,2026-07-16T10:05:00.722400,15.34125323,.0010671,51.8787,257.8914,51.7897,308.4048,0,U,69607,999,572,-.30727E-3,-.10689E-3,0
KUIPER-00538,2026-140S,2026-07-17T03:45:30.266784,15.37766687,.0006734,51.8789,253.8397,350.5657,9.5202,0,U,69608,999,584,.38888E-3,.14296E-3,0
KUIPER-00540,2026-140T,2026-07-16T12:27:47.153664,15.36985728,.0006665,51.8800,257.0682,27.2165,332.9170,0,U,69609,999,574,.36471E-3,.1304E-3,0
KUIPER-00541,2026-140U,2026-07-17T03:28:26.318784,15.38374957,.0008099,51.8772,253.7704,334.6508,25.4081,0,U,69610,999,584,-.1547E-4,-.996E-5,0
KUIPER-00542,2026-140V,2026-07-16T13:24:56.169216,15.38313003,.0007895,51.8777,256.5811,311.2983,48.7323,0,U,69611,999,575,.34107E-3,.12719E-3,0
KUIPER-00543,2026-140W,2026-07-16T11:00:53.190144,15.36847698,.0008025,51.8773,257.3997,39.6029,320.5542,0,U,69612,999,573,.19447E-3,.6734E-4,0
KUIPER-00544,2026-140X,2026-07-16T10:24:24.778368,15.38205711,.0006941,51.8777,257.2376,323.8770,36.1747,0,U,69613,999,573,.41195E-3,.15393E-3,0
KUIPER-00546,2026-140Y,2026-07-17T04:36:17.433216,15.38069352,.0013911,51.8777,253.3281,272.1248,87.8146,0,U,69614,999,585,.53091E-3,.19921E-3,0
KUIPER-00547,2026-140Z,2026-07-17T03:25:35.590656,15.37965255,.0010748,51.8802,253.7562,300.4134,59.5791,0,U,69615,999,584,.49627E-3,.18505E-3,0
KUIPER-00549,2026-140AA,2026-07-16T13:53:38.389056,15.37359191,.0007925,51.8779,256.7102,19.5782,340.5507,0,U,69616,999,575,.36576E-3,.13244E-3,0
KUIPER-00550,2026-140AB,2026-07-16T16:45:15.186816,15.31913173,.0007925,51.8796,256.7438,67.2224,292.9597,0,U,69617,999,576,-.1092E-2,-.34394E-3,0
KUIPER-00551,2026-140AC,2026-07-16T13:12:05.620320,15.38269864,.001251,51.8779,256.5241,285.0023,74.9579,0,U,69618,999,575,.42958E-3,.16131E-3,0
KUIPER-00554,2026-140AD,2026-07-17T03:22:49.669824,15.38018775,.0011216,51.8770,253.7329,300.6753,59.3128,0,U,69619,999,584,.37862E-3,.14041E-3,0
KUIPER-00555,2026-140AE,2026-07-17T00:00:02.000160,15.37969251,.0011402,51.8806,254.3925,285.8530,28.5865,0,U,69620,999,529,.16195E-2,.61659E-3,0
KUIPER-00556,2026-140AF,2026-07-17T03:16:38.584416,15.38371238,.0011525,51.8785,253.7105,277.0769,82.8908,0,U,69621,999,584,.57332E-3,.21744E-3,0
KUIPER-00557,2026-140AG,2026-07-17T03:32:09.244608,15.37514067,.0009566,51.8798,253.7806,307.0267,52.9844,0,U,69622,999,584,-.63982E-4,-.2792E-4,0
KUIPER-00560,2026-140AH,2026-07-17T04:00:01.998720,15.37019122,.0009172,51.8778,253.5812,319.5347,195.9536,0,U,69623,999,542,.48454E-3,.17493E-3,0
KUIPER-00561,2026-140AJ,2026-07-16T10:10:25.469760,15.38751926,.0007665,51.8812,257.1893,305.7051,54.3223,0,U,69624,999,573,.33889E-3,.12821E-3,0
KUIPER-00564,2026-140AK,2026-07-17T03:28:22.970784,15.37236129,.0008706,51.8796,253.7609,305.0494,54.9675,0,U,69625,999,584,.25342E-3,.9014E-4,0
KUIPER-00567,2026-140AL,2026-07-17T00:00:02.000160,15.38300447,.0012908,51.8760,254.3334,276.1952,61.5916,0,U,69626,999,580,.12911E-2,.49564E-3,0
KUIPER-00573,2026-140AM,2026-07-17T03:37:41.996928,15.37517892,.0009311,51.8770,253.7966,292.5254,67.4747,0,U,69627,999,584,.39089E-3,.14263E-3,0
KZ-11 R/B,2026-138H,2026-07-12T21:48:00.762624,15.43010363,.03770511,55.1520,167.7492,143.6026,219.1292,0,U,69628,999,389,.75497354E-3,.78015E-2,.9750105E-5
CENTISPACE-1 GROUP 05 OBJECT J,2026-138J,2026-07-13T09:42:48.125952,14.15842380,.00095471,55.1383,184.3032,341.3483,18.7141,0,U,69636,999,370,-.51944164E-4,-.256E-5,0
VICTUS HAZE PUMA,2026-142A,2026-07-17T06:50:10.918176,15.21130675,.0026403,97.4460,95.5635,259.4716,100.3545,0,U,69646,999,424,.99242E-4,.2157E-4,0
HOKUSHIN-1,1998-067YH,2026-07-16T13:57:25.348032,15.51054092,.0006217,51.6315,154.3536,335.9165,24.1533,0,U,69648,999,421,.29228719E-3,.16901E-3,0
